STARLINK-5578           
1 55374U 23013AV  25040.95563917  .00015432  00000+0  11564-2 0  9992
2 55374  43.0051 287.1897 0001189 251.0041 109.0673 15.02489069112489
STARLINK-5588           
1 55375U 23013AW  25040.94562028  .00000012  00000+0  15966-4 0  9994
2 55375  43.0027 287.1141 0001262 271.5227  88.5471 15.02537987112480
STARLINK-5586           
1 55376U 23013AX  25040.91961450  .00000472  00000+0  49989-4 0  9996
2 55376  43.0016 261.7676 0001097 267.5182  92.5535 15.02536634112777
STARLINK-5567           
1 55377U 23013AY  25040.93230591 -.00001396  00000+0 -88321-4 0  9995
2 55377  43.0032 287.0153 0001376 278.7569  81.3118 15.02528687112480
STARLINK-5572           
1 55378U 23013AZ  25040.94895250  .00000751  00000+0  70682-4 0  9999
2 55378  43.0023 287.1430 0001010 267.2171  92.8555 15.02536890112484
STARLINK-5569           
1 55379U 23013BA  25040.93895746  .00001111  00000+0  97282-4 0  9995
2 55379  43.0016 287.0631 0000980 263.7459  96.3271 15.02538730112483
STARLINK-5571           
1 55380U 23013BB  25040.88298314  .00000371  00000+0  42545-4 0  9998
2 55380  43.0024 261.5054 0001042 274.7834  85.2890 15.02541060112775
STARLINK-5575           
1 55381U 23013BC  25040.07142198  .00000125  00000+0  24323-4 0  9999
2 55381  43.0033 291.7337 0001234 283.8635  76.2070 15.02535593112356
STARLINK-5576           
1 55382U 23013BD  25040.94229136  .00000421  00000+0  46250-4 0  9996
2 55382  43.0032 287.0927 0001158 266.9279  93.1431 15.02537162112487
STARLINK-5531           
1 55383U 23013BE  25040.87965376  .00000939  00000+0  84550-4 0  9991
2 55383  43.0014 261.4789 0001145 261.9775  98.0938 15.02539196112779
STARLINK-5537           
1 55384U 23013BF  25040.07585964  .00000396  00000+0  44394-4 0  9994
2 55384  43.0032 291.7725 0001144 266.5445  93.5267 15.02536499112352
STARLINK-5556           
1 55385U 23013BG  25040.06143174  .00001913  00000+0  15666-3 0  9992
2 55385  43.0028 291.6610 0001276 264.0460  96.0237 15.02535298112357
STARLINK-5555           
1 55386U 23013BH  25040.06476097  .00000535  00000+0  54656-4 0  9998
2 55386  43.0021 291.6867 0001218 264.8246  95.2457 15.02535346112350
STARLINK-5077           
1 55391U 23014A   25040.91667824  .00330857  00000+0  16488-1 0  9990
2 55391  70.0012 332.7104 0003107 272.7636  77.0986 15.15854792  5817
STARLINK-5085           
1 55392U 23014B   25040.95589543  .00000791  00000+0  74066-4 0  9996
2 55392  70.0005 314.5677 0002833 269.8083  90.2752 14.98328103113721
STARLINK-4786           
1 55393U 23014C   25040.91023102  .00001200  00000+0  10830-3 0  9991
2 55393  70.0015 334.6924 0002960 261.7363  98.3461 14.98331170113223
STARLINK-5274           
1 55395U 23014E   25040.96863581  .00000876  00000+0  81206-4 0  9995
2 55395  70.0003 334.4764 0002845 271.3564  88.7269 14.98329021113236
STARLINK-5283           
1 55396U 23014F   25040.90605732 -.00000032  00000+0  50771-5 0  9991
2 55396  70.0011 334.6657 0002794 269.0286  91.0553 14.98327325113224
STARLINK-5224           
1 55397U 23014G   25040.93505116 -.00000389  00000+0 -24833-4 0  9995
2 55397  70.0017 314.8835 0002423 262.3462  97.7422 14.98337954113711
STARLINK-5275           
1 55398U 23014H   25040.92274182  .00000828  00000+0  77149-4 0  9995
2 55398  70.0003 334.7190 0003237 277.0183  83.0608 14.98336733113223
STARLINK-5276           
1 55399U 23014J   25040.91440362  .00002409  00000+0  20959-3 0  9993
2 55399  70.0007 334.6911 0002762 273.2647  86.8196 14.98329657113223
STARLINK-5632           
1 55400U 23014K   25040.93110087  .00000293  00000+0  32374-4 0  9990
2 55400  70.0012 334.7471 0002655 267.6360  92.4495 14.98328798113224
STARLINK-5076           
1 55401U 23014L   25040.91856838  .00001743  00000+0  15381-3 0  9999
2 55401  70.0008 334.7063 0002961 271.2372  88.8448 14.98334868113223
STARLINK-5071           
1 55402U 23014M   25040.93945201  .00000533  00000+0  52441-4 0  9990
2 55402  70.0009 334.7826 0002648 267.8351  92.2505 14.98319614113227
STARLINK-5597           
1 55403U 23014N   25040.92692530  .00000509  00000+0  50453-4 0  9998
2 55403  70.0012 334.7376 0002585 270.6076  89.4787 14.98331240113227
STARLINK-5607           
1 55404U 23014P   25040.94779992  .00000031  00000+0  10353-4 0  9994
2 55404  70.0010 334.8124 0002804 269.3342  90.7496 14.98325362113223
STARLINK-5623           
1 55405U 23014Q   25040.93527558  .00000120  00000+0  17811-4 0  9998
2 55405  70.0012 334.7679 0002659 270.4496  89.6359 14.98325746113222
STARLINK-5630           
1 55406U 23014R   25040.91667824 -.00030241  00000+0 -25362-2 0  9995
2 55406  70.0033 334.9160 0003154 267.2799 262.4714 14.98351035  5714
STARLINK-5019           
1 55407U 23014S   25040.94362131  .00000851  00000+0  79110-4 0  9996
2 55407  70.0010 334.7980 0002642 272.0050  88.0807 14.98328459113228
STARLINK-5092           
1 55408U 23014T   25040.95614409  .00002849  00000+0  24639-3 0  9990
2 55408  70.0021 334.8426 0002951 269.4108  90.6712 14.98337192113222
STARLINK-5047           
1 55409U 23014U   25040.88429745  .00120275  00000+0  96699-2 0  9998
2 55409  70.0004 334.9927 0003777 292.4641  67.6119 14.99299083113217
STARLINK-5633           
1 55410U 23014V   25040.92297391  .00000272  00000+0  30585-4 0  9993
2 55410  70.0009 354.5920 0002769 267.6436  92.4406 14.98329657112732
STARLINK-5605           
1 55411U 23014W   25040.96031275 -.00006007  00000+0 -49602-3 0  9998
2 55411  70.0025 334.8581 0003508 285.3343  74.7428 14.98332528113224
STARLINK-5033           
1 55412U 23014X   25040.91667824  .00009464  00000+0  28184-3 0  9999
2 55412  70.0016 352.0684 0002727 256.5380 211.8248 15.34968029  5859
STARLINK-5060           
1 55413U 23014Y   25040.91879742  .00000380  00000+0  39642-4 0  9994
2 55413  70.0008 354.5777 0002883 268.6991  91.3837 14.98329934112732
STARLINK-5620           
1 55414U 23014Z   25040.93549767  .00000168  00000+0  21834-4 0  9996
2 55414  70.0024 354.6353 0002685 269.7607  90.3244 14.98323309112739
STARLINK-5618           
1 55415U 23014AA  25040.91667824  .01209101  00000+0  10423-1 0  9998
2 55415  70.0014 350.3117 0003367 261.9395 321.9968 15.66427519  5850
STARLINK-5624           
1 55416U 23014AB  25040.94384974  .00001277  00000+0  11478-3 0  9990
2 55416  70.0009 354.6658 0002763 269.2349  90.8494 14.98322204112732
STARLINK-5616           
1 55417U 23014AC  25040.91667824  .00094175  00000+0  76423-2 0  9995
2 55417  70.0025 354.6465 0003081 253.1255  39.2541 14.99093966112729
STARLINK-5030           
1 55418U 23014AD  25040.95219616  .00000300  00000+0  32914-4 0  9998
2 55418  70.0008 354.6947 0002340 266.3178  93.7714 14.98329379112730
STARLINK-5629           
1 55419U 23014AE  25040.93968272 -.00000571  00000+0 -40055-4 0  9993
2 55419  70.0007 354.6510 0002913 269.8613  90.2212 14.98318922112731
STARLINK-5604           
1 55420U 23014AF  25040.91001540 -.00000802  00000+0 -59418-4 0  9999
2 55420  70.0006 314.8170 0002641 269.1909  90.8947 14.98323316113714
STARLINK-5598           
1 55421U 23014AG  25040.94801984  .00000155  00000+0  20788-4 0  9990
2 55421  70.0008 354.6810 0002503 269.9736  90.1136 14.98331796112738
STARLINK-5006           
1 55422U 23014AH  25040.92714308 -.00000882  00000+0 -66181-4 0  9998
2 55422  70.0014 354.6043 0002540 261.1344  98.9527 14.98318137112738
STARLINK-5068           
1 55423U 23014AJ  25040.96471717 -.00000711  00000+0 -51818-4 0  9999
2 55423  70.0011 354.7367 0002643 272.8648  87.2209 14.98334978112735
STARLINK-5615           
1 55425U 23014AL  25040.95636693  .00000064  00000+0  13113-4 0  9991
2 55425  70.0009 354.7104 0002894 270.6422  89.4405 14.98337157112731
STARLINK-5638           
1 55426U 23014AM  25040.90630381  .00000352  00000+0  37301-4 0  9990
2 55426  70.0009 354.9359 0002086 277.3320  82.7602 14.98330786112725
STARLINK-5073           
1 55427U 23014AN  25040.96054225  .00002586  00000+0  22441-3 0  9993
2 55427  70.0007 354.7246 0002930 266.7601  93.3223 14.98333836112736
STARLINK-5064           
1 55428U 23014AP  25040.91465140  .00000291  00000+0  32190-4 0  9995
2 55428  70.0008 354.9657 0002852 267.1600  92.9233 14.98329312112722
STARLINK-5645           
1 55429U 23014AQ  25040.96889428  .00001953  00000+0  17141-3 0  9994
2 55429  70.0006 354.7533 0002472 270.0779  90.0096 14.98341766112734
STARLINK-5642           
1 55430U 23014AR  25040.96076184 -.00000011  00000+0  68710-5 0  9998
2 55430  70.0001  14.5830 0002822 271.2688  88.8148 14.98332210112246
STARLINK-5643           
1 55431U 23014AS  25040.91047887  .00000609  00000+0  58825-4 0  9999
2 55431  70.0011 354.9518 0002071 264.2631  95.8292 14.98332288112724
STARLINK-5637           
1 55432U 23014AT  25040.96927757  .00000855  00000+0  79423-4 0  9998
2 55432  70.0008  14.6135 0002735 269.0547  91.0298 14.98330208112243
STARLINK-5570           
1 55433U 23014AU  25040.95659010 -.00000573  00000+0 -40204-4 0  9996
2 55433  70.0003  14.5683 0002813 271.5639  88.5197 14.98330502112249
STARLINK-5621           
1 55434U 23014AV  25040.64366151 -.00000155  00000+0 -51938-5 0  9997
2 55434  70.0005  15.4852 0002657 269.4999  90.5856 14.98328183112192
STARLINK-5626           
1 55435U 23014AW  25040.96911157  .00000297  00000+0  32663-4 0  9993
2 55435  70.0001  14.6145 0003025 269.9373  90.1439 14.98328097112249
STARLINK-5640           
1 55436U 23014AX  25040.64783456 -.00000496  00000+0 -33767-4 0  9997
2 55436  70.0004  15.4993 0002835 269.2222  90.8613 14.98328966112197
STARLINK-5074           
1 55438U 23014AZ  25040.96448336  .00000168  00000+0  21904-4 0  9993
2 55438  70.0009 334.4840 0003114 269.1840  90.8962 14.98321643113233
STARLINK-5634           
1 55439U 23014BA  25040.65202547  .00002810  00000+0  24317-3 0  9998
2 55439  70.0017  15.5159 0002737 276.3052  83.7795 14.98335610112196
